*******************************************************************************
Ephemeris / WWW_USER Mon Mar 24 10:54:48 2025 Pasadena, USA      / Horizons    
*******************************************************************************
Target body name: (2018 RG5)                      {source: JPL#6}
Center body name: Earth (399)                     {source: DE441}
Center-site name: Mauna Kea
*******************************************************************************
Start time      : A.D. 2018-Aug-04 05:07:00.0000 UT      
Stop  time      : A.D. 2018-Aug-04 15:49:00.0000 UT      
Step-size       : 1 minutes
*******************************************************************************
Target pole/equ : undefined
Target radii    : undefined                                                    
Center geodetic : 204.5278, 19.8260847, 4.21024   {E-lon(deg),Lat(deg),Alt(km)}
Center cylindric: 204.5278, 6006.35451, 2151.0229 {E-lon(deg),Dxy(km),Dz(km)}
Center pole/equ : ITRF93                          {East-longitude positive}
Center radii    : 6378.137, 6378.137, 6356.752 km {Equator_a, b, pole_c}       
Target primary  : Sun
Vis. interferer : MOON (R_eq= 1737.400) km        {source: DE441}
Rel. light bend : Sun                             {source: DE441}
Rel. lght bnd GM: 1.3271E+11 km^3/s^2                                          
Small-body perts: Yes                             {source: SB441-N16}
Atmos refraction: NO (AIRLESS)
RA format       : HMS
Time format     : CAL 
Calendar mode   : Mixed Julian/Gregorian
RTS-only print  : NO       
EOP file        : eop.250321.p250617                                           
EOP coverage    : DATA-BASED 1962-JAN-20 TO 2025-MAR-21. PREDICTS-> 2025-JUN-16
Units conversion: 1 au= 149597870.700 km, c= 299792.458 km/s, 1 day= 86400.0 s 
Table cut-offs 1: Elevation (-90.0deg=NO ),Airmass (>38.000=NO), Daylight (YES)
Table cut-offs 2: Solar elongation (  0.0,180.0=NO ),Local Hour Angle( 0.0=NO )
Table cut-offs 3: RA/DEC angular rate (     0.0=NO )                           
*******************************************************************************
Initial IAU76/J2000 heliocentric ecliptic osculating elements (au, days, deg.):
  EPOCH=  2458374.5 ! 2018-Sep-13.00 (TDB)         Residual RMS= .44286        
   EC= .3970272763955992   QR= .9476094655819058   TP= 2458410.7007282218      
   OM= 172.9777515025259   W=  220.286388004559    IN= 6.065188755768435       
  Equivalent ICRF heliocentric cartesian coordinates (au, au/d):
   X= 1.011373795361920E+00  Y=-1.657289676662098E-01  Z=-6.569093016663846E-02
  VX=-6.707749535245534E-04 VY= 1.878070382659777E-02 VZ= 5.901532854039199E-03
Asteroid physical parameters (km, seconds, rotational period in hours):        
   GM= n.a.                RAD= n.a.               ROTPER= n.a.                
   H= 26.76                G= .150                 B-V= n.a.                   
                           ALBEDO= n.a.            STYP= n.a.                  
*******************************************************************************
 Date__(UT)__HR:MN     R.A._________(ICRF)_________DEC
******************************************************
$$SOE
 2018-Aug-04 07:10     21 26 17.726701 +06 21 28.21968
 2018-Aug-04 07:11     21 26 17.728050 +06 21 28.67650
 2018-Aug-04 07:12     21 26 17.729361 +06 21 29.13327
 2018-Aug-04 07:13     21 26 17.730634 +06 21 29.59000
 2018-Aug-04 07:14     21 26 17.731869 +06 21 30.04668
 2018-Aug-04 07:15     21 26 17.733066 +06 21 30.50332
 2018-Aug-04 07:16     21 26 17.734225 +06 21 30.95991
 2018-Aug-04 07:17     21 26 17.735347 +06 21 31.41645
 2018-Aug-04 07:18     21 26 17.736430 +06 21 31.87295
 2018-Aug-04 07:19     21 26 17.737477 +06 21 32.32941
 2018-Aug-04 07:20     21 26 17.738486 +06 21 32.78582
 2018-Aug-04 07:21     21 26 17.739457 +06 21 33.24218
 2018-Aug-04 07:22     21 26 17.740392 +06 21 33.69849
 2018-Aug-04 07:23     21 26 17.741289 +06 21 34.15476
 2018-Aug-04 07:24     21 26 17.742150 +06 21 34.61098
 2018-Aug-04 07:25     21 26 17.742974 +06 21 35.06715
 2018-Aug-04 07:26     21 26 17.743761 +06 21 35.52328
 2018-Aug-04 07:27     21 26 17.744511 +06 21 35.97935
 2018-Aug-04 07:28     21 26 17.745225 +06 21 36.43538
 2018-Aug-04 07:29     21 26 17.745903 +06 21 36.89136
 2018-Aug-04 07:30     21 26 17.746545 +06 21 37.34729
 2018-Aug-04 07:31     21 26 17.747150 +06 21 37.80317
 2018-Aug-04 07:32     21 26 17.747719 +06 21 38.25900
 2018-Aug-04 07:33     21 26 17.748253 +06 21 38.71478
 2018-Aug-04 07:34     21 26 17.748751 +06 21 39.17051
 2018-Aug-04 07:35     21 26 17.749213 +06 21 39.62620
 2018-Aug-04 07:36     21 26 17.749640 +06 21 40.08183
 2018-Aug-04 07:37     21 26 17.750031 +06 21 40.53740
 2018-Aug-04 07:38     21 26 17.750387 +06 21 40.99293
 2018-Aug-04 07:39     21 26 17.750708 +06 21 41.44841
 2018-Aug-04 07:40     21 26 17.750994 +06 21 41.90383
 2018-Aug-04 07:41     21 26 17.751245 +06 21 42.35921
 2018-Aug-04 07:42     21 26 17.751461 +06 21 42.81453
 2018-Aug-04 07:43     21 26 17.751643 +06 21 43.26979
 2018-Aug-04 07:44     21 26 17.751790 +06 21 43.72501
 2018-Aug-04 07:45     21 26 17.751903 +06 21 44.18017
 2018-Aug-04 07:46     21 26 17.751982 +06 21 44.63528
 2018-Aug-04 07:47     21 26 17.752027 +06 21 45.09034
 2018-Aug-04 07:48     21 26 17.752037 +06 21 45.54534
 2018-Aug-04 07:49     21 26 17.752014 +06 21 46.00029
 2018-Aug-04 07:50     21 26 17.751957 +06 21 46.45518
 2018-Aug-04 07:51     21 26 17.751867 +06 21 46.91002
 2018-Aug-04 07:52     21 26 17.751743 +06 21 47.36480
 2018-Aug-04 07:53     21 26 17.751585 +06 21 47.81953
 2018-Aug-04 07:54     21 26 17.751395 +06 21 48.27421
 2018-Aug-04 07:55     21 26 17.751172 +06 21 48.72883
 2018-Aug-04 07:56     21 26 17.750915 +06 21 49.18339
 2018-Aug-04 07:57     21 26 17.750626 +06 21 49.63789
 2018-Aug-04 07:58     21 26 17.750305 +06 21 50.09234
 2018-Aug-04 07:59     21 26 17.749950 +06 21 50.54674
 2018-Aug-04 08:00     21 26 17.749564 +06 21 51.00108
 2018-Aug-04 08:01     21 26 17.749145 +06 21 51.45536
 2018-Aug-04 08:02     21 26 17.748694 +06 21 51.90958
 2018-Aug-04 08:03     21 26 17.748212 +06 21 52.36374
 2018-Aug-04 08:04     21 26 17.747697 +06 21 52.81785
 2018-Aug-04 08:05     21 26 17.747151 +06 21 53.27190
 2018-Aug-04 08:06     21 26 17.746573 +06 21 53.72589
 2018-Aug-04 08:07     21 26 17.745964 +06 21 54.17983
 2018-Aug-04 08:08     21 26 17.745324 +06 21 54.63370
 2018-Aug-04 08:09     21 26 17.744653 +06 21 55.08752
 2018-Aug-04 08:10     21 26 17.743951 +06 21 55.54128
 2018-Aug-04 08:11     21 26 17.743218 +06 21 55.99497
 2018-Aug-04 08:12     21 26 17.742454 +06 21 56.44861
 2018-Aug-04 08:13     21 26 17.741660 +06 21 56.90219
 2018-Aug-04 08:14     21 26 17.740835 +06 21 57.35571
 2018-Aug-04 08:15     21 26 17.739981 +06 21 57.80916
 2018-Aug-04 08:16     21 26 17.739096 +06 21 58.26256
 2018-Aug-04 08:17     21 26 17.738181 +06 21 58.71590
 2018-Aug-04 08:18     21 26 17.737237 +06 21 59.16917
 2018-Aug-04 08:19     21 26 17.736263 +06 21 59.62239
 2018-Aug-04 08:20     21 26 17.735260 +06 22 00.07554
 2018-Aug-04 08:21     21 26 17.734227 +06 22 00.52863
 2018-Aug-04 08:22     21 26 17.733165 +06 22 00.98166
 2018-Aug-04 08:23     21 26 17.732074 +06 22 01.43463
 2018-Aug-04 08:24     21 26 17.730955 +06 22 01.88754
 2018-Aug-04 08:25     21 26 17.729806 +06 22 02.34038
 2018-Aug-04 08:26     21 26 17.728629 +06 22 02.79316
 2018-Aug-04 08:27     21 26 17.727424 +06 22 03.24588
 2018-Aug-04 08:28     21 26 17.726191 +06 22 03.69853
 2018-Aug-04 08:29     21 26 17.724929 +06 22 04.15112
 2018-Aug-04 08:30     21 26 17.723640 +06 22 04.60365
 2018-Aug-04 08:31     21 26 17.722322 +06 22 05.05612
 2018-Aug-04 08:32     21 26 17.720978 +06 22 05.50852
 2018-Aug-04 08:33     21 26 17.719605 +06 22 05.96085
 2018-Aug-04 08:34     21 26 17.718206 +06 22 06.41312
 2018-Aug-04 08:35     21 26 17.716779 +06 22 06.86533
 2018-Aug-04 08:36     21 26 17.715325 +06 22 07.31747
 2018-Aug-04 08:37     21 26 17.713845 +06 22 07.76955
 2018-Aug-04 08:38     21 26 17.712338 +06 22 08.22156
 2018-Aug-04 08:39     21 26 17.710804 +06 22 08.67351
 2018-Aug-04 08:40     21 26 17.709244 +06 22 09.12539
 2018-Aug-04 08:41     21 26 17.707658 +06 22 09.57720
 2018-Aug-04 08:42     21 26 17.706046 +06 22 10.02895
 2018-Aug-04 08:43     21 26 17.704408 +06 22 10.48064
 2018-Aug-04 08:44     21 26 17.702745 +06 22 10.93225
 2018-Aug-04 08:45     21 26 17.701056 +06 22 11.38380
 2018-Aug-04 08:46     21 26 17.699341 +06 22 11.83529
 2018-Aug-04 08:47     21 26 17.697602 +06 22 12.28670
 2018-Aug-04 08:48     21 26 17.695837 +06 22 12.73805
 2018-Aug-04 08:49     21 26 17.694048 +06 22 13.18933
 2018-Aug-04 08:50     21 26 17.692234 +06 22 13.64055
 2018-Aug-04 08:51     21 26 17.690395 +06 22 14.09170
 2018-Aug-04 08:52     21 26 17.688532 +06 22 14.54278
 2018-Aug-04 08:53     21 26 17.686645 +06 22 14.99379
 2018-Aug-04 08:54     21 26 17.684733 +06 22 15.44473
 2018-Aug-04 08:55     21 26 17.682798 +06 22 15.89560
 2018-Aug-04 08:56     21 26 17.680840 +06 22 16.34641
 2018-Aug-04 08:57     21 26 17.678857 +06 22 16.79715
 2018-Aug-04 08:58     21 26 17.676852 +06 22 17.24781
 2018-Aug-04 08:59     21 26 17.674823 +06 22 17.69841
 2018-Aug-04 09:00     21 26 17.672771 +06 22 18.14894
 2018-Aug-04 09:01     21 26 17.670697 +06 22 18.59940
 2018-Aug-04 09:02     21 26 17.668599 +06 22 19.04979
 2018-Aug-04 09:03     21 26 17.666480 +06 22 19.50011
 2018-Aug-04 09:04     21 26 17.664338 +06 22 19.95036
 2018-Aug-04 09:05     21 26 17.662174 +06 22 20.40054
 2018-Aug-04 09:06     21 26 17.659988 +06 22 20.85065
 2018-Aug-04 09:07     21 26 17.657780 +06 22 21.30069
 2018-Aug-04 09:08     21 26 17.655550 +06 22 21.75066
 2018-Aug-04 09:09     21 26 17.653299 +06 22 22.20056
 2018-Aug-04 09:10     21 26 17.651027 +06 22 22.65039
 2018-Aug-04 09:11     21 26 17.648734 +06 22 23.10014
 2018-Aug-04 09:12     21 26 17.646419 +06 22 23.54983
